$$SOE
2459580.500000000, A.D. 2022-Jan-01 00:00:00.0000, -5.410069742843699E+09, 1.526748293882689E+09, 9.631671338733991E+08,
2459587.500000000, A.D. 2022-Jan-08 00:00:00.0000, -5.410613215109067E+09, 1.523862427310875E+09, 9.646330003656697E+08,
2459594.500000000, A.D. 2022-Jan-15 00:00:00.0000, -5.411155350433491E+09, 1.520976177214744E+09, 9.660986157617819E+08,
2459601.500000000, A.D. 2022-Jan-22 00:00:00.0000, -5.411696144752460E+09, 1.518089542853705E+09, 9.675639793006979E+08,
2459608.500000000, A.D. 2022-Jan-29 00:00:00.0000, -5.412235593423111E+09, 1.515202525963736E+09, 9.690290903286304E+08,
2459615.500000000, A.D. 2022-Feb-05 00:00:00.0000, -5.412773693431288E+09, 1.512315130085716E+09, 9.704939484468122E+08,
2459622.500000000, A.D. 2022-Feb-12 00:00:00.0000, -5.413310443425308E+09, 1.509427358825504E+09, 9.719585533742120E+08,
2459629.500000000, A.D. 2022-Feb-19 00:00:00.0000, -5.413845842901168E+09, 1.506539215414783E+09, 9.734229048402110E+08,
2459636.500000000, A.D. 2022-Feb-26 00:00:00.0000, -5.414379891850580E+09, 1.503650702849648E+09, 9.748870025682478E+08,
2459643.500000000, A.D. 2022-Mar-05 00:00:00.0000, -5.414912590712560E+09, 1.500761823990092E+09, 9.763508462851617E+08,
2459650.500000000, A.D. 2022-Mar-12 00:00:00.0000, -5.415443940406738E+09, 1.497872581554728E+09, 9.778144357302294E+08,
2459657.500000000, A.D. 2022-Mar-19 00:00:00.0000, -5.415973942377359E+09, 1.494982978038959E+09, 9.792777706593684E+08,
2459664.500000000, A.D. 2022-Mar-26 00:00:00.0000, -5.416502598625530E+09, 1.492093015550821E+09, 9.807408508416741E+08,
2459671.500000000, A.D. 2022-Apr-02 00:00:00.0000, -5.417029911661946E+09, 1.489202695508896E+09, 9.822036760372472E+08,
2459678.500000000, A.D. 2022-Apr-09 00:00:00.0000, -5.417555884108031E+09, 1.486312018207342E+09, 9.836662459315228E+08,
2459685.500000000, A.D. 2022-Apr-16 00:00:00.0000, -5.418080517588358E+09, 1.483420982902342E+09, 9.851285600466228E+08,
2459692.500000000, A.D. 2022-Apr-23 00:00:00.0000, -5.418603812183213E+09, 1.480529589504434E+09, 9.865906178345699E+08,
2459699.500000000, A.D. 2022-Apr-30 00:00:00.0000, -5.419125768311474E+09, 1.477637839631602E+09, 9.880524189403588E+08,
2459706.500000000, A.D. 2022-May-07 00:00:00.0000, -5.419646387981055E+09, 1.474745735049690E+09, 9.895139631925843E+08,
2459713.500000000, A.D. 2022-May-14 00:00:00.0000, -5.420165674017560E+09, 1.471853276538421E+09, 9.909752504424543E+08,
2459720.500000000, A.D. 2022-May-21 00:00:00.0000, -5.420683629302180E+09, 1.468960463941816E+09, 9.924362804994644E+08,
2459727.500000000, A.D. 2022-May-28 00:00:00.0000, -5.421200256497687E+09, 1.466067296444310E+09, 9.938970531293316E+08,
2459734.500000000, A.D. 2022-Jun-04 00:00:00.0000, -5.421715557985353E+09, 1.463173772759841E+09, 9.953575680632166E+08,
2459741.500000000, A.D. 2022-Jun-11 00:00:00.0000, -5.422229535868111E+09, 1.460279891236257E+09, 9.968178250051942E+08,
2459748.500000000, A.D. 2022-Jun-18 00:00:00.0000, -5.422742192001242E+09, 1.457385649888496E+09, 9.982778236355628E+08,
2459755.500000000, A.D. 2022-Jun-25 00:00:00.0000, -5.423253528021091E+09, 1.454491046327629E+09, 9.997375636046636E+08,
2459762.500000000, A.D. 2022-Jul-02 00:00:00.0000, -5.423763545237745E+09, 1.451596077520251E+09, 1.001197044499645E+09,
2459769.500000000, A.D. 2022-Jul-09 00:00:00.0000, -5.424272244001373E+09, 1.448700739555444E+09, 1.002656265762967E+09,
2459776.500000000, A.D. 2022-Jul-16 00:00:00.0000, -5.424779622597349E+09, 1.445805028502267E+09, 1.004115226656342E+09,
2459783.500000000, A.D. 2022-Jul-23 00:00:00.0000, -5.425285677868589E+09, 1.442908942435591E+09, 1.005573926478300E+09,
2459790.500000000, A.D. 2022-Jul-30 00:00:00.0000, -5.425790407480976E+09, 1.440012481276402E+09, 1.007032364753795E+09,
2459797.500000000, A.D. 2022-Aug-06 00:00:00.0000, -5.426293810233116E+09, 1.437115645094707E+09, 1.008490541118950E+09,
2459804.500000000, A.D. 2022-Aug-13 00:00:00.0000, -5.426795885233614E+09, 1.434218433629510E+09, 1.009948455201771E+09,
2459811.500000000, A.D. 2022-Aug-20 00:00:00.0000, -5.427296631515245E+09, 1.431320846522445E+09, 1.011406106601918E+09,
2459818.500000000, A.D. 2022-Aug-27 00:00:00.0000, -5.427796048017831E+09, 1.428422883538511E+09, 1.012863494904106E+09,
2459825.500000000, A.D. 2022-Sep-03 00:00:00.0000, -5.428294133691930E+09, 1.425524544663360E+09, 1.014320619693557E+09,
2459832.500000000, A.D. 2022-Sep-10 00:00:00.0000, -5.428790887633240E+09, 1.422625830101061E+09, 1.015777480567328E+09,
2459839.500000000, A.D. 2022-Sep-17 00:00:00.0000, -5.429286309218290E+09, 1.419726740170590E+09, 1.017234077138710E+09,
2459846.500000000, A.D. 2022-Sep-24 00:00:00.0000, -5.429780398180988E+09, 1.416827275050178E+09, 1.018690409024988E+09,
2459853.500000000, A.D. 2022-Oct-01 00:00:00.0000, -5.430273154390056E+09, 1.413927434347222E+09, 1.020146475794600E+09,
2459860.500000000, A.D. 2022-Oct-08 00:00:00.0000, -5.430764576920035E+09, 1.411027217015825E+09, 1.021602276878825E+09,
2459867.500000000, A.D. 2022-Oct-15 00:00:00.0000, -5.431254663347704E+09, 1.408126622821153E+09, 1.023057811631236E+09,
2459874.500000000, A.D. 2022-Oct-22 00:00:00.0000, -5.431743411455494E+09, 1.405225653666723E+09, 1.024513079597143E+09,
2459881.500000000, A.D. 2022-Oct-29 00:00:00.0000, -5.432230820844096E+09, 1.402324312191121E+09, 1.025968080551686E+09,
2459888.500000000, A.D. 2022-Nov-05 00:00:00.0000, -5.432716892354930E+09, 1.399422600375317E+09, 1.027422814337760E+09,
2459895.500000000, A.D. 2022-Nov-12 00:00:00.0000, -5.433201627267305E+09, 1.396520519427772E+09, 1.028877280787311E+09,
2459902.500000000, A.D. 2022-Nov-19 00:00:00.0000, -5.433685026989655E+09, 1.393618069993262E+09, 1.030331479713810E+09,
2459909.500000000, A.D. 2022-Nov-26 00:00:00.0000, -5.434167092982625E+09, 1.390715252288044E+09, 1.031785410919263E+09,
2459916.500000000, A.D. 2022-Dec-03 00:00:00.0000, -5.434647826747960E+09, 1.387812066149877E+09, 1.033239074199446E+09,
2459923.500000000, A.D. 2022-Dec-10 00:00:00.0000, -5.435127229837714E+09, 1.384908511021557E+09, 1.034692469344718E+09,
2459930.500000000, A.D. 2022-Dec-17 00:00:00.0000, -5.435605303859004E+09, 1.382004585843001E+09, 1.036145596132039E+09,
2459937.500000000, A.D. 2022-Dec-24 00:00:00.0000, -5.436082050364976E+09, 1.379100288786018E+09, 1.037598454292840E+09,
2459944.500000000, A.D. 2022-Dec-31 00:00:00.0000, -5.436557470274291E+09, 1.376195616939304E+09, 1.039051043432744E+09,
2459951.500000000, A.D. 2023-Jan-07 00:00:00.0000, -5.437031562696477E+09, 1.373290566906030E+09, 1.040503362970592E+09,
2459958.500000000, A.D. 2023-Jan-14 00:00:00.0000, -5.437504325130115E+09, 1.370385136810857E+09, 1.041955412317879E+09,
2459965.500000000, A.D. 2023-Jan-21 00:00:00.0000, -5.437975755678622E+09, 1.367479326543719E+09, 1.043407191098506E+09,
2459972.500000000, A.D. 2023-Jan-28 00:00:00.0000, -5.438445853615661E+09, 1.364573136044886E+09, 1.044858699056540E+09,
2459979.500000000, A.D. 2023-Feb-04 00:00:00.0000, -5.438914618508669E+09, 1.361666564659073E+09, 1.046309935918601E+09,
2459986.500000000, A.D. 2023-Feb-11 00:00:00.0000, -5.439382049695772E+09, 1.358759611365026E+09, 1.047760901359816E+09,
2459993.500000000, A.D. 2023-Feb-18 00:00:00.0000, -5.439848146179230E+09, 1.355852275057576E+09, 1.049211595012009E+09,
2460000.500000000, A.D. 2023-Feb-25 00:00:00.0000, -5.440312906672532E+09, 1.352944554720528E+09, 1.050662016476910E+09,
2460007.500000000, A.D. 2023-Mar-04 00:00:00.0000, -5.440776329698784E+09, 1.350036449509420E+09, 1.052112165336730E+09,
2460014.500000000, A.D. 2023-Mar-11 00:00:00.0000, -5.441238413711561E+09, 1.347127958744909E+09, 1.053562041159690E+09,
2460021.500000000, A.D. 2023-Mar-18 00:00:00.0000, -5.441699157190992E+09, 1.344219081767531E+09, 1.055011643492353E+09,
2460028.500000000, A.D. 2023-Mar-25 00:00:00.0000, -5.442158558511553E+09, 1.341309817606892E+09, 1.056460971816472E+09,
2460035.500000000, A.D. 2023-Apr-01 00:00:00.0000, -5.442616615156851E+09, 1.338400164858901E+09, 1.057910025463783E+09,
2460042.500000000, A.D. 2023-Apr-08 00:00:00.0000, -5.443073322896664E+09, 1.335490122996228E+09, 1.059358803645507E+09,
2460049.500000000, A.D. 2023-Apr-15 00:00:00.0000, -5.443528677263101E+09, 1.332579694005990E+09, 1.060807305720682E+09,
2460056.500000000, A.D. 2023-Apr-22 00:00:00.0000, -5.443982675516604E+09, 1.329668881302817E+09, 1.062255531288092E+09,
2460063.500000000, A.D. 2023-Apr-29 00:00:00.0000, -5.444435316366715E+09, 1.326757688170276E+09, 1.063703480035083E+09,
2460070.500000000, A.D. 2023-May-06 00:00:00.0000, -5.444886599207749E+09, 1.323846117511866E+09, 1.065151151650233E+09,
2460077.500000000, A.D. 2023-May-13 00:00:00.0000, -5.445336523846150E+09, 1.320934172018172E+09, 1.066598545816350E+09,
2460084.500000000, A.D. 2023-May-20 00:00:00.0000, -5.445785090485319E+09, 1.318021854259162E+09, 1.068045662222027E+09,
2460091.500000000, A.D. 2023-May-27 00:00:00.0000, -5.446232299774458E+09, 1.315109166672278E+09, 1.069492500571342E+09,
2460098.500000000, A.D. 2023-Jun-03 00:00:00.0000, -5.446678152863788E+09, 1.312196111472386E+09, 1.070939060588304E+09,
2460105.500000000, A.D. 2023-Jun-10 00:00:00.0000, -5.447122651442370E+09, 1.309282690469872E+09, 1.072385342012434E+09,
2460112.500000000, A.D. 2023-Jun-17 00:00:00.0000, -5.447565797669503E+09, 1.306368904736856E+09, 1.073831344572142E+09,
2460119.500000000, A.D. 2023-Jun-24 00:00:00.0000, -5.448007593679680E+09, 1.303454754177180E+09, 1.075277067910829E+09,
2460126.500000000, A.D. 2023-Jul-01 00:00:00.0000, -5.448448040407996E+09, 1.300540237828333E+09, 1.076722511509969E+09,
2460133.500000000, A.D. 2023-Jul-08 00:00:00.0000, -5.448887137409964E+09, 1.297625355717427E+09, 1.078167674829703E+09,
2460140.500000000, A.D. 2023-Jul-15 00:00:00.0000, -5.449324884952499E+09, 1.294710109441475E+09, 1.079612557552693E+09,
2460147.500000000, A.D. 2023-Jul-22 00:00:00.0000, -5.449761284854714E+09, 1.291794500437614E+09, 1.081057159523612E+09,
$$EOE